start=new Date('2022-09-26T00:00:00.000Z').valueOf();
sats=[{"SITE":"AFETR","CENTER_NAME":"EARTH","PERIOD":"95.437","TIME_SYSTEM":"UTC","INCLINATION":"53.2176","MEAN_MOTION_DOT":"-0.00001325","RCS_SIZE":"LARGE","EPHEMERIS_TYPE":"0","REF_FRAME":"TEME","PERIAPSIS":"538.622","FILE":"3583828","NORAD_CAT_ID":"49741","ARG_OF_PERICENTER":"54.2852","OBJECT_ID":"2021-115T","LAUNCH_DATE":"2021-12-02","MEAN_ELEMENT_THEORY":"SGP4","EPOCH":"2022-09-25T16:05:08.103552","ECCENTRICITY":"0.00016150","MEAN_MOTION":"15.08842025","ELEMENT_SET_NO":"999","COUNTRY_CODE":"US","DECAY_DATE":null,"BSTAR":"-0.00006517000000","TLE_LINE1":"1 49741U 21115T   22268.67023268 -.00001325  00000-0 -65170-4 0  9995","SEMIMAJOR_AXIS":"6917.874","APOAPSIS":"540.856","CLASSIFICATION_TYPE":"U","RA_OF_ASC_NODE":"50.0503","MEAN_MOTION_DDOT":"0.0000000000000","TLE_LINE2":"2 49741  53.2176  50.0503 0001615  54.2852 305.8290 15.08842025 45161","GP_ID":"213507407","OBJECT_TYPE":"PAYLOAD","MEAN_ANOMALY":"305.8290","OBJECT_NAME":"STARLINK-3244","REV_AT_EPOCH":"4516"},{"TLE_LINE2":"2 49742  53.2170  49.3986 0001699  44.5542 315.5587 15.08844840 46291","GP_ID":"213480891","MEAN_MOTION_DDOT":"0.0000000000000","OBJECT_NAME":"STARLINK-3202","REV_AT_EPOCH":"4629","MEAN_ANOMALY":"315.5587","OBJECT_TYPE":"PAYLOAD","ELEMENT_SET_NO":"999","MEAN_MOTION":"15.08844840","EPOCH":"2022-09-25T19:37:05.981376","ECCENTRICITY":"0.00016990","MEAN_ELEMENT_THEORY":"SGP4","RA_OF_ASC_NODE":"49.3986","CLASSIFICATION_TYPE":"U","APOAPSIS":"540.906","SEMIMAJOR_AXIS":"6917.866","TLE_LINE1":"1 49742U 21115U   22268.81743034  .00001921  00000-0  13876-3 0  9997","BSTAR":"0.00013876000000","COUNTRY_CODE":"US","DECAY_DATE":null,"PERIAPSIS":"538.555","REF_FRAME":"TEME","EPHEMERIS_TYPE":"0","LAUNCH_DATE":"2021-12-02","OBJECT_ID":"2021-115U","ARG_OF_PERICENTER":"44.5542","NORAD_CAT_ID":"49742","FILE":"3583684","PERIOD":"95.437","CENTER_NAME":"EARTH","SITE":"AFETR","RCS_SIZE":"LARGE","INCLINATION":"53.2170","MEAN_MOTION_DOT":"0.00001921","TIME_SYSTEM":"UTC"},{"PERIAPSIS":"538.464","REF_FRAME":"TEME","EPHEMERIS_TYPE":"0","ARG_OF_PERICENTER":"54.2849","LAUNCH_DATE":"2021-12-02","OBJECT_ID":"2021-115V","FILE":"3583684","NORAD_CAT_ID":"49743","PERIOD":"95.437","SITE":"AFETR","CENTER_NAME":"EARTH","RCS_SIZE":"LARGE","TIME_SYSTEM":"UTC","MEAN_MOTION_DOT":"0.00000430","INCLINATION":"53.2177","MEAN_MOTION_DDOT":"0.0000000000000","TLE_LINE2":"2 49743  53.2177  49.4485 0001798  54.2849 305.8311 15.08852270 46295","GP_ID":"213481387","REV_AT_EPOCH":"4629","OBJECT_NAME":"STARLINK-3239","OBJECT_TYPE":"PAYLOAD","MEAN_ANOMALY":"305.8311","ECCENTRICITY":"0.00017980","EPOCH":"2022-09-25T19:21:11.835936","MEAN_MOTION":"15.08852270","ELEMENT_SET_NO":"999","MEAN_ELEMENT_THEORY":"SGP4","CLASSIFICATION_TYPE":"U","RA_OF_ASC_NODE":"49.4485","COUNTRY_CODE":"US","DECAY_DATE":null,"BSTAR":"0.00004511800000","TLE_LINE1":"1 49743U 21115V   22268.80638699  .00000430  00000-0  45118-4 0  9996","SEMIMAJOR_AXIS":"6917.843","APOAPSIS":"540.952"},{"ELEMENT_SET_NO":"999","MEAN_MOTION":"15.08845469","EPOCH":"2022-09-25T18:12:18.317376","ECCENTRICITY":"0.00015190","MEAN_ELEMENT_THEORY":"SGP4","RA_OF_ASC_NODE":"49.6566","CLASSIFICATION_TYPE":"U","APOAPSIS":"540.779","SEMIMAJOR_AXIS":"6917.864","TLE_LINE1":"1 49744U 21115W   22268.75854534  .00002637  00000-0  18367-3 0  9995","BSTAR":"0.00018367000000","COUNTRY_CODE":"US","DECAY_DATE":null,"TLE_LINE2":"2 49744  53.2177  49.6566 0001519  54.5270 305.5864 15.08845469 46281","GP_ID":"213481382","MEAN_MOTION_DDOT":"0.0000000000000","REV_AT_EPOCH":"4628","OBJECT_NAME":"STARLINK-3231","MEAN_ANOMALY":"305.5864","OBJECT_TYPE":"PAYLOAD","PERIOD":"95.437","CENTER_NAME":"EARTH","SITE":"AFETR","RCS_SIZE":"LARGE","MEAN_MOTION_DOT":"0.00002637","INCLINATION":"53.2177","TIME_SYSTEM":"UTC","REF_FRAME":"TEME","PERIAPSIS":"538.678","EPHEMERIS_TYPE":"0","OBJECT_ID":"2021-115W","LAUNCH_DATE":"2021-12-02","ARG_OF_PERICENTER":"54.5270","FILE":"3583683","NORAD_CAT_ID":"49744"},{"MEAN_ELEMENT_THEORY":"SGP4","MEAN_MOTION":"15.08850439","ECCENTRICITY":"0.00015830","EPOCH":"2022-09-25T16:21:01.956960","ELEMENT_SET_NO":"999","COUNTRY_CODE":"US","DECAY_DATE":null,"APOAPSIS":"540.809","TLE_LINE1":"1 49745U 21115X   22268.68127265  .00004554  00000-0  30392-3 0  9994","SEMIMAJOR_AXIS":"6917.848","BSTAR":"0.00030392000000","CLASSIFICATION_TYPE":"U","RA_OF_ASC_NODE":"50.0147","MEAN_MOTION_DDOT":"0.0000000000000","GP_ID":"213506907","TLE_LINE2":"2 49745  53.2168  50.0147 0001583  61.8680 298.2472 15.08850439 45162","MEAN_ANOMALY":"298.2472","OBJECT_TYPE":"PAYLOAD","OBJECT_NAME":"STARLINK-3241","REV_AT_EPOCH":"4516","SITE":"AFETR","CENTER_NAME":"EARTH","PERIOD":"95.437","TIME_SYSTEM":"UTC","INCLINATION":"53.2168","MEAN_MOTION_DOT":"0.00004554","RCS_SIZE":"LARGE","EPHEMERIS_TYPE":"0","REF_FRAME":"TEME","PERIAPSIS":"538.618","FILE":"3583828","NORAD_CAT_ID":"49745","OBJECT_ID":"2021-115X","LAUNCH_DATE":"2021-12-02","ARG_OF_PERICENTER":"61.8680"},{"OBJECT_NAME":"STARLINK-3233","REV_AT_EPOCH":"4518","OBJECT_TYPE":"PAYLOAD","MEAN_ANOMALY":"315.8382","MEAN_MOTION_DDOT":"0.0000000000000","TLE_LINE2":"2 49746  53.2166  49.3267 0001984  44.2769 315.8382 15.08827275 45183","GP_ID":"213507155","CLASSIFICATION_TYPE":"U","RA_OF_ASC_NODE":"49.3267","DECAY_DATE":null,"COUNTRY_CODE":"US","SEMIMAJOR_AXIS":"6917.919","TLE_LINE1":"1 49746U 21115Y   22268.83215471  .00001210  00000-0  94116-4 0  9990","BSTAR":"0.00009411600000","APOAPSIS":"541.157","ECCENTRICITY":"0.00019840","EPOCH":"2022-09-25T19:58:18.166944","MEAN_MOTION":"15.08827275","ELEMENT_SET_NO":"999","MEAN_ELEMENT_THEORY":"SGP4","ARG_OF_PERICENTER":"44.2769","LAUNCH_DATE":"2021-12-02","OBJECT_ID":"2021-115Y","FILE":"3583828","NORAD_CAT_ID":"49746","REF_FRAME":"TEME","PERIAPSIS":"538.412","EPHEMERIS_TYPE":"0","RCS_SIZE":"LARGE","TIME_SYSTEM":"UTC","MEAN_MOTION_DOT":"0.00001210","INCLINATION":"53.2166","PERIOD":"95.438","SITE":"AFETR","CENTER_NAME":"EARTH"},{"FILE":"3583685","NORAD_CAT_ID":"49747","ARG_OF_PERICENTER":"46.4856","LAUNCH_DATE":"2021-12-02","OBJECT_ID":"2021-115Z","EPHEMERIS_TYPE":"0","PERIAPSIS":"538.572","REF_FRAME":"TEME","MEAN_MOTION_DOT":"-0.00000869","INCLINATION":"53.2189","TIME_SYSTEM":"UTC","RCS_SIZE":"LARGE","CENTER_NAME":"EARTH","SITE":"AFETR","PERIOD":"95.438","OBJECT_TYPE":"PAYLOAD","MEAN_ANOMALY":"313.6277","REV_AT_EPOCH":"4629","OBJECT_NAME":"STARLINK-3247","GP_ID":"213481403","TLE_LINE2":"2 49747  53.2189  49.3706 0001695  46.4856 313.6277 15.08840356 46294","MEAN_MOTION_DDOT":"0.0000000000000","TLE_LINE1":"1 49747U 21115Z   22268.82110673 -.00000869  00000-0 -36515-4 0  9998","SEMIMAJOR_AXIS":"6917.879","BSTAR":"-0.00003651500000","APOAPSIS":"540.917","DECAY_DATE":null,"COUNTRY_CODE":"US","RA_OF_ASC_NODE":"49.3706","CLASSIFICATION_TYPE":"U","MEAN_ELEMENT_THEORY":"SGP4","ELEMENT_SET_NO":"999","EPOCH":"2022-09-25T19:42:23.621472","ECCENTRICITY":"0.00016950","MEAN_MOTION":"15.08840356"},{"MEAN_ELEMENT_THEORY":"SGP4","ELEMENT_SET_NO":"999","ECCENTRICITY":"0.00016830","EPOCH":"2022-09-25T16:58:07.132800","MEAN_MOTION":"15.08842468","BSTAR":"0.00018328000000","TLE_LINE1":"1 49748U 21115AA  22268.70702700  .00002630  00000-0  18328-3 0  9991","SEMIMAJOR_AXIS":"6917.873","APOAPSIS":"540.902","DECAY_DATE":null,"COUNTRY_CODE":"US","RA_OF_ASC_NODE":"49.9070","CLASSIFICATION_TYPE":"U","TLE_LINE2":"2 49748  53.2175  49.9070 0001683  48.3034 311.8102 15.08842468 45175","GP_ID":"213508646","MEAN_MOTION_DDOT":"0.0000000000000","OBJECT_TYPE":"PAYLOAD","MEAN_ANOMALY":"311.8102","OBJECT_NAME":"STARLINK-3248","REV_AT_EPOCH":"4517","CENTER_NAME":"EARTH","SITE":"AFETR","PERIOD":"95.437","INCLINATION":"53.2175","MEAN_MOTION_DOT":"0.00002630","TIME_SYSTEM":"UTC","RCS_SIZE":"LARGE","EPHEMERIS_TYPE":"0","REF_FRAME":"TEME","PERIAPSIS":"538.574","FILE":"3583828","NORAD_CAT_ID":"49748","ARG_OF_PERICENTER":"48.3034","OBJECT_ID":"2021-115AA","LAUNCH_DATE":"2021-12-02"},{"RCS_SIZE":"LARGE","TIME_SYSTEM":"UTC","MEAN_MOTION_DOT":"0.00000088","INCLINATION":"53.2177","PERIOD":"95.438","SITE":"AFETR","CENTER_NAME":"EARTH","ARG_OF_PERICENTER":"49.5889","LAUNCH_DATE":"2021-12-02","OBJECT_ID":"2021-115AB","NORAD_CAT_ID":"49749","FILE":"3583828","REF_FRAME":"TEME","PERIAPSIS":"538.409","EPHEMERIS_TYPE":"0","CLASSIFICATION_TYPE":"U","RA_OF_ASC_NODE":"50.2367","COUNTRY_CODE":"US","DECAY_DATE":null,"TLE_LINE1":"1 49749U 21115AB  22268.62975610  .00000088  00000-0  23607-4 0  9997","SEMIMAJOR_AXIS":"6917.879","BSTAR":"0.00002360700000","APOAPSIS":"541.080","ECCENTRICITY":"0.00019300","EPOCH":"2022-09-25T15:06:50.927040","MEAN_MOTION":"15.08840333","ELEMENT_SET_NO":"999","MEAN_ELEMENT_THEORY":"SGP4","OBJECT_NAME":"STARLINK-3250","REV_AT_EPOCH":"4515","OBJECT_TYPE":"PAYLOAD","MEAN_ANOMALY":"310.5271","MEAN_MOTION_DDOT":"0.0000000000000","TLE_LINE2":"2 49749  53.2177  50.2367 0001930  49.5889 310.5271 15.08840333 45158","GP_ID":"213507408"},{"PERIOD":"95.436","SITE":"AFETR","CENTER_NAME":"EARTH","RCS_SIZE":"LARGE","TIME_SYSTEM":"UTC","INCLINATION":"53.2159","MEAN_MOTION_DOT":"0.00002102","PERIAPSIS":"538.585","REF_FRAME":"TEME","EPHEMERIS_TYPE":"0","ARG_OF_PERICENTER":"60.8845","OBJECT_ID":"2021-115AC","LAUNCH_DATE":"2021-12-02","NORAD_CAT_ID":"49750","FILE":"3583828","EPOCH":"2022-09-25T20:19:29.097120","ECCENTRICITY":"0.00015880","MEAN_MOTION":"15.08860070","ELEMENT_SET_NO":"999","MEAN_ELEMENT_THEORY":"SGP4","CLASSIFICATION_TYPE":"U","RA_OF_ASC_NODE":"49.2715","COUNTRY_CODE":"US","DECAY_DATE":null,"TLE_LINE1":"1 49750U 21115AC  22268.84686455  .00002102  00000-0  15003-3 0  9998","BSTAR":"0.00015003000000","SEMIMAJOR_AXIS":"6917.819","APOAPSIS":"540.783","MEAN_MOTION_DDOT":"0.0000000000000","TLE_LINE2":"2 49750  53.2159  49.2715 0001588  60.8845 299.2306 15.08860070 45198","GP_ID":"213507656","REV_AT_EPOCH":"4519","OBJECT_NAME":"STARLINK-3236","OBJECT_TYPE":"PAYLOAD","MEAN_ANOMALY":"299.2306"}];
